NORAD_CAT_ID,OBJECT_NAME,OBJECT_TYPE,EPOCH,MEAN_MOTION,ECCENTRICITY,INCLINATION,RA_OF_ASC_NODE,ARG_OF_PERICENTER,MEAN_ANOMALY,BSTAR,MEAN_MOTION_DOT,MEAN_MOTION_DDOT,TLE_LINE0,TLE_LINE1,TLE_LINE2,SEMIMAJOR_AXIS,PERIOD,APOGEE,PERIGEE,DECAYED
53901.0,STARLINK-5024,PAYLOAD,2023-01-17 02:55:00,15.08818118,0.0001778,53.2192,75.5575,89.4941,270.6255,-0.00011981,-2.193e-05,0.0,0 STARLINK-5024,1 53901U 22119R   23017.12153714 -.00002193  00000-0 -11981-3 0  9990,2 53901  53.2192  75.5575 0001778  89.4941 270.6255 15.08818118 18023,6917.946999999999,95.439,541.0419999999999,538.582,0.0
53901.0,STARLINK-5024,PAYLOAD,2023-01-17 10:51:57,15.0881332,0.000136,53.2198,74.0678,93.3599,266.7549,-0.00015234,-2.71e-05,0.0,0 STARLINK-5024,1 53901U 22119R   23017.45274586 -.00002710  00000-0 -15234-3 0  9997,2 53901  53.2198  74.0678 0001360  93.3599 266.7549 15.08813320 18490,6917.962,95.439,540.768,538.886,0.0
53901.0,STARLINK-5024,PAYLOAD,2023-01-18 02:45:47,15.08844224,0.0001008,53.2182,71.0941,113.0873,247.0226,-0.00022258,-3.829e-05,0.0,0 STARLINK-5024,1 53901U 22119R   23018.11513581 -.00003829  00000-0 -22258-3 0  9998,2 53901  53.2182  71.0941 0001008 113.0873 247.0226 15.08844224 18173,6917.866999999999,95.437,540.43,539.035,0.0
53901.0,STARLINK-5024,PAYLOAD,2023-01-18 09:07:19,15.0885376,0.0001906,53.2192,69.9065,132.8116,227.3037,-0.00012412,-2.264e-05,0.0,0 STARLINK-5024,1 53901U 22119R   23018.38008506 -.00002264  00000-0 -12412-3 0  9996,2 53901  53.2192  69.9065 0001906 132.8116 227.3037 15.08853760 18214,6917.838000000001,95.437,541.0219999999999,538.385,0.0
53901.0,STARLINK-5024,PAYLOAD,2023-01-18 20:15:00,15.088644400000002,0.0001075999999999,53.2185,67.8213,85.8309,274.2806,-8.018000000000001e-07,-3.01e-06,0.0,0 STARLINK-5024,1 53901U 22119R   23018.84375096 -.00000301  00000-0 -80180-6 0  9998,2 53901  53.2185  67.8213 0001076  85.8309 274.2806 15.08864440 18703,6917.806,95.436,540.415,538.9259999999999,0.0
53901.0,STARLINK-5024,PAYLOAD,2023-01-19 02:36:34,15.08821882,0.0001516,53.2196,66.6338,107.4856,252.6302,0.00016777,2.382e-05,0.0,0 STARLINK-5024,1 53901U 22119R   23019.10873298  .00002382  00000-0  16777-3 0  9992,2 53901  53.2196  66.6338 0001516 107.4856 252.6302 15.08821882 18329,6917.936,95.439,540.85,538.752,0.0
53901.0,STARLINK-5024,PAYLOAD,2023-01-19 07:22:43,15.08835108,0.0001653,53.2191,65.7417,110.4892,249.6277,0.000267,3.963e-05,0.0,0 STARLINK-5024,1 53901U 22119R   23019.30744272  .00003963  00000-0  26700-3 0  9996,2 53901  53.2191  65.7417 0001653 110.4892 249.6277 15.08835108 18354,6917.895,95.438,540.904,538.617,0.0
53901.0,STARLINK-5024,PAYLOAD,2023-01-19 12:08:51,15.08843466,1.36e-05,53.2167,64.8477,33.2335,326.8665,0.00030754,4.611e-05,0.0,0 STARLINK-5024,1 53901U 22119R   23019.50615485  .00004611  00000-0  30754-3 0  9996,2 53901  53.2167  64.8477 0000136  33.2335 326.8665 15.08843466 18807,6917.87,95.437,539.8290000000001,539.641,0.0
53901.0,STARLINK-5024,PAYLOAD,2023-01-19 20:05:49,15.08832316,0.0001675999999999,53.2184,63.3631,93.9203,266.1981,8.255499999999999e-06,-1.57e-06,0.0,0 STARLINK-5024,1 53901U 22119R   23019.83737445 -.00000157  00000-0  82555-5 0  9993,2 53901  53.2184  63.3631 0001676  93.9203 266.1981 15.08832316 18437,6917.904,95.438,540.928,538.609,0.0
53901.0,STARLINK-5024,PAYLOAD,2023-01-20 08:48:54,15.08832086,8.85e-05,53.2163,60.9843,73.01899999999999,287.0899,8.3397e-06,-1.55e-06,0.0,0 STARLINK-5024,1 53901U 22119R   23020.36729477 -.00000155  00000-0  83397-5 0  9992,2 53901  53.2163  60.9843 0000885  73.0190 287.0899 15.08832086 18936,6917.905,95.438,540.382,539.1569999999999,0.0
53901.0,STARLINK-5024,PAYLOAD,2023-01-20 11:59:39,15.08851658,0.0001189999999999,53.2185,60.3869,86.7759,273.337,-7.0935e-05,-1.417e-05,0.0,0 STARLINK-5024,1 53901U 22119R   23020.49976537 -.00001417  00000-0 -70935-4 0  9993,2 53901  53.2185  60.3869 0001190  86.7759 273.3370 15.08851658 18538,6917.845,95.437,540.533,538.887,0.0
53901.0,STARLINK-5024,PAYLOAD,2023-01-21 02:18:08,15.08835889,0.0001139,53.2175,57.7133,84.417,275.6952,-2.4307e-05,-6.75e-06,0.0,0 STARLINK-5024,1 53901U 22119R   23021.09593078 -.00000675  00000-0 -24307-4 0  9992,2 53901  53.2175  57.7133 0001139  84.4170 275.6952 15.08835889 18625,6917.893,95.438,540.5459999999999,538.97,0.0
53901.0,STARLINK-5024,PAYLOAD,2023-01-21 08:39:40,15.08849391,0.0001229,53.2165,56.5218,95.8526,264.2606,-4.6432e-05,-1.027e-05,0.0,0 STARLINK-5024,1 53901U 22119R   23021.36088266 -.00001027  00000-0 -46432-4 0  9995,2 53901  53.2165  56.5218 0001229  95.8526 264.2606 15.08849391 18663,6917.852,95.437,540.567,538.866,0.0
53901.0,STARLINK-5024,PAYLOAD,2023-01-22 08:30:27,15.08837791,0.0001317,53.2165,52.0626,85.4004,274.7139,0.00010681,1.412e-05,0.0,0 STARLINK-5024,1 53901U 22119R   23022.35448382  .00001412  00000-0  10681-3 0  9996,2 53901  53.2165  52.0626 0001317  85.4004 274.7139 15.08837791 18816,6917.887,95.438,540.663,538.841,0.0
53901.0,STARLINK-5024,PAYLOAD,2023-01-22 11:41:13,15.08846754,0.0001536,53.2187,51.4651,92.376,267.7409,4.1352e-05,3.700000000000001e-06,0.0,0 STARLINK-5024,1 53901U 22119R   23022.48696025  .00000370  00000-0  41352-4 0  9991,2 53901  53.2187  51.4651 0001536  92.3760 267.7409 15.08846754 18833,6917.86,95.437,540.7869999999999,538.6619999999999,0.0
53901.0,STARLINK-5024,PAYLOAD,2023-01-23 01:59:43,15.08829367,0.0001385,53.2182,48.7909,99.781,260.3339,-8.3669e-05,-1.619e-05,0.0,0 STARLINK-5024,1 53901U 22119R   23023.08313835 -.00001619  00000-0 -83669-4 0  9999,2 53901  53.2182  48.7909 0001385  99.7810 260.3339 15.08829367 18924,6917.9130000000005,95.438,540.736,538.82,0.0
53901.0,STARLINK-5024,PAYLOAD,2023-01-23 17:53:33,15.08839383,0.0001534,53.2181,45.8171,101.2381,258.8783,-8.8594e-05,-1.698e-05,0.0,0 STARLINK-5024,1 53901U 22119R   23023.74553161 -.00001698  00000-0 -88594-4 0  9999,2 53901  53.2181  45.8171 0001534 101.2381 258.8783 15.08839383 19026,6917.882,95.438,540.808,538.686,0.0
53901.0,STARLINK-5024,PAYLOAD,2023-01-25 01:41:17,15.08827432,0.000181,53.2185,39.8682,110.2007,249.918,-5.9209e-06,-3.82e-06,0.0,0 STARLINK-5024,1 53901U 22119R   23025.07034234 -.00000382  00000-0 -59209-5 0  9993,2 53901  53.2185  39.8682 0001810 110.2007 249.9180 15.08827432 19228,6917.919,95.438,541.036,538.5319999999999,0.0
53901.0,STARLINK-5024,PAYLOAD,2023-01-25 08:02:49,15.08832555,0.0001645,53.219,38.6827,106.0403,254.077,4.0249e-05,3.52e-06,0.0,0 STARLINK-5024,1 53901U 22119R   23025.33529937  .00000352  00000-0  40249-4 0  9999,2 53901  53.2190  38.6827 0001645 106.0403 254.0770 15.08832555 19685,6917.903,95.438,540.906,538.63,0.0
53901.0,STARLINK-5024,PAYLOAD,2023-01-25 17:35:08,15.08836221,0.0001672,53.2197,36.8984,103.4812,256.6367,6.3087e-05,7.16e-06,0.0,0 STARLINK-5024,1 53901U 22119R   23025.73273772  .00000716  00000-0  63087-4 0  9995,2 53901  53.2197  36.8984 0001672 103.4812 256.6367 15.08836221 19326,6917.892,95.438,540.914,538.6,0.0
53901.0,STARLINK-5024,PAYLOAD,2023-01-26 09:28:59,15.08845772,0.0001693,53.22,33.9242,101.3849,258.7334,8.9589e-05,1.138e-05,0.0,0 STARLINK-5024,1 53901U 22119R   23026.39513219  .00001138  00000-0  89589-4 0  9995,2 53901  53.2200  33.9242 0001693 101.3849 258.7334 15.08845772 19425,6917.863,95.437,540.899,538.557,0.0
53901.0,STARLINK-5024,PAYLOAD,2023-01-27 01:22:51,15.08830118,0.0001453,53.22,30.9474,88.2749,271.8409,6.5987e-05,7.62e-06,0.0,0 STARLINK-5024,1 53901U 22119R   23027.05754195  .00000762  00000-0  65987-4 0  9997,2 53901  53.2200  30.9474 0001453  88.2749 271.8409 15.08830118 19523,6917.911,95.438,540.781,538.77,0.0
53901.0,STARLINK-5024,PAYLOAD,2023-01-27 07:44:23,15.08841397,0.000158,53.2196,29.7577,97.3729,262.7443,4.3703000000000005e-05,4.08e-06,0.0,0 STARLINK-5024,1 53901U 22119R   23027.32249609  .00000408  00000-0  43703-4 0  9995,2 53901  53.2196  29.7577 0001580  97.3729 262.7443 15.08841397 19569,6917.876,95.437,540.8340000000001,538.648,0.0
53901.0,STARLINK-5024,PAYLOAD,2023-01-28 09:10:33,15.08843328,0.0001511,53.2187,25.0005,100.4554,259.6609,-2.0537e-05,-6.15e-06,0.0,0 STARLINK-5024,1 53901U 22119R   23028.38233647 -.00000615  00000-0 -20537-4 0  9999,2 53901  53.2187  25.0005 0001511 100.4554 259.6609 15.08843328 19723,6917.87,95.437,540.781,538.69,0.0
53901.0,STARLINK-5024,PAYLOAD,2023-01-29 09:01:20,15.08843317,0.0001446,53.2186,20.5399,102.2944,257.821,-2.3252e-06,-3.25e-06,0.0,0 STARLINK-5024,1 53901U 22119R   23029.37593464 -.00000325  00000-0 -23252-5 0  9991,2 53901  53.2186  20.5399 0001446 102.2944 257.8210 15.08843317 20298,6917.87,95.437,540.736,538.735,0.0
53901.0,STARLINK-5024,PAYLOAD,2023-01-30 02:30:35,15.08833072,0.0001328,53.2184,17.269,104.425,255.689,0.00014861,2.078e-05,0.0,0 STARLINK-5024,1 53901U 22119R   23030.10457346  .00002078  00000-0  14861-3 0  9991,2 53901  53.2184  17.2690 0001328 104.4250 255.6890 15.08833072 19987,6917.902,95.438,540.685,538.848,0.0
53901.0,STARLINK-5024,PAYLOAD,2023-01-30 08:52:08,15.08808185,0.0001517,53.2184,16.08,107.0889,253.027,0.00047773,7.317e-05,0.0,0 STARLINK-5024,1 53901U 22119R   23030.36953709  .00007317  00000-0  47773-3 0  9992,2 53901  53.2184  16.0800 0001517 107.0889 253.0270 15.08808185 20022,6917.978,95.44,540.892,538.793,0.0
53901.0,STARLINK-5024,PAYLOAD,2023-01-30 23:10:36,15.08833891,0.0001239,53.2185,13.4029,107.9619,252.1509,-5.5105e-05,-1.165e-05,0.0,0 STARLINK-5024,1 53901U 22119R   23030.96570205 -.00001165  00000-0 -55105-4 0  9990,2 53901  53.2185  13.4029 0001239 107.9619 252.1509 15.08833891 20115,6917.899,95.438,540.621,538.907,0.0
53901.0,STARLINK-5024,PAYLOAD,2023-01-31 08:42:55,15.08841101,0.0001228,53.2183,11.6211,98.6351,261.478,-1.3983e-05,-5.1e-06,0.0,0 STARLINK-5024,1 53901U 22119R   23031.36313690 -.00000510  00000-0 -13983-4 0  9999,2 53901  53.2183  11.6211 0001228  98.6351 261.4780 15.08841101 20176,6917.877,95.437,540.592,538.893,0.0
